HULIANWANG DIGUI-140    
1 67438U 26007D   26201.63579705 -.00000104  00000+0  42720-4 0  9990
2 67438  50.0075 326.0768 0000837 134.3062 225.7879 13.29326146 25235
HULIANWANG DIGUI-141    
1 67439U 26007E   26202.05342384 -.00000108  00000+0  35043-4 0  9993
2 67439  50.0066 324.2745 0000854 135.5301 224.5640 13.29327039 25290
HULIANWANG DIGUI-142    
1 67440U 26007F   26202.04510397 -.00000102  00000+0  46737-4 0  9991
2 67440  50.0141 324.3499 0000851 137.1671 222.9267 13.29326871 25298
HULIANWANG DIGUI-143    
1 67441U 26007G   26201.28500579 -.00000106  00000+0  38957-4 0  9997
2 67441  50.0120 326.9727 0000719 137.5951 222.4977 13.29325152 25199
HULIANWANG DIGUI-144    
1 67442U 26007H   26202.02824097 -.00000108  00000+0  35650-4 0  9994
2 67442  50.0110 324.2168 0000865 140.3537 219.7398 13.29329386 25293
HULIANWANG DIGUI-145    
1 67443U 26007J   26201.64419387 -.00000107  00000+0  36890-4 0  9990
2 67443  50.0113 325.5281 0000811 136.0186 224.0751 13.29325907 25242
HULIANWANG DIGUI-146    
1 67522U 26013A   26202.06489169 -.00000093  00000+0  65948-4 0  9997
2 67522  50.0060 234.4057 0001360 241.3803 118.6932 13.29325486 24550
HULIANWANG DIGUI-147    
1 67523U 26013B   26201.83084133 -.00000099  00000+0  54233-4 0  9995
2 67523  50.0030 235.1216 0001257 241.2968 118.7778 13.29329048 24523
HULIANWANG DIGUI-148    
1 67524U 26013C   26202.12318459 -.00000097  00000+0  58477-4 0  9992
2 67524  50.0069 234.0637 0001296 240.3375 119.7368 13.29327034 24569
HULIANWANG DIGUI-149    
1 67525U 26013D   26201.43834812 -.00000119  00000+0  10755-4 0  9994
2 67525  50.0077 236.4381 0001484 238.6982 121.3744 13.29328860 24479
HULIANWANG DIGUI-150    
1 67526U 26013E   26201.79757564 -.00000180  00000+0 -12020-3 0  9997
2 67526  50.0033 234.9433 0001238 239.3818 120.6932 13.29324411 24543
HULIANWANG DIGUI-151    
1 67527U 26013F   26201.35481306 -.00000160  00000+0 -77359-4 0  9993
2 67527  50.0088 236.6724 0001298 238.4379 121.6367 13.29326379 24463
HULIANWANG DIGUI-152    
1 67528U 26013G   26202.08981989 -.00000101  00000+0  49521-4 0  9991
2 67528  50.0018 233.8108 0001315 242.4476 117.6262 13.29332808 24569
HULIANWANG DIGUI-153    
1 67529U 26013H   26201.78087689 -.00000105  00000+0  41227-4 0  9991
2 67529  50.0021 234.8496 0001321 242.9913 117.0825 13.29324076 24515
HULIANWANG DIGUI-154    
1 67530U 26013J   26201.77238796 -.00000103  00000+0  45676-4 0  9999
2 67530  50.0044 234.8456 0001286 240.9574 119.1169 13.29332482 24513
HULIANWANG DIGUI-155    
1 68129U 26047A   26201.53358184 -.00000100  00000+0  50971-4 0  9990
2 68129  50.0042 296.7866 0001006 219.3258 140.7541 13.29325951 17505
