{"fetched_at":"2026-07-21T17:53:31.607Z","source":"https://celestrak.org/NORAD/elements/gp.php?NAME=HULIANWANG&FORMAT=JSON","constellation":"guowang","records":[{"OBJECT_NAME":"HULIANWANG DIGUI-140","OBJECT_ID":"2026-007D","EPOCH":"2026-07-20T15:15:32.865120","CLASSIFICATION_TYPE":"U","MEAN_MOTION":13.29326146,"ECCENTRICITY":0.0000837,"INCLINATION":50.0075,"RA_OF_ASC_NODE":326.0768,"ARG_OF_PERICENTER":134.3062,"MEAN_ANOMALY":225.7879,"EPHEMERIS_TYPE":0,"NORAD_CAT_ID":67438,"ELEMENT_SET_NO":999,"REV_AT_EPOCH":2523,"BSTAR":0.00004272,"MEAN_MOTION_DOT":-0.00000104,"MEAN_MOTION_DDOT":0},{"OBJECT_NAME":"HULIANWANG DIGUI-141","OBJECT_ID":"2026-007E","EPOCH":"2026-07-21T01:16:55.819776","CLASSIFICATION_TYPE":"U","MEAN_MOTION":13.29327039,"ECCENTRICITY":0.00008543,"INCLINATION":50.0066,"RA_OF_ASC_NODE":324.2745,"ARG_OF_PERICENTER":135.5301,"MEAN_ANOMALY":224.564,"EPHEMERIS_TYPE":0,"NORAD_CAT_ID":67439,"ELEMENT_SET_NO":999,"REV_AT_EPOCH":2529,"BSTAR":0.000035042653,"MEAN_MOTION_DOT":-0.00000108,"MEAN_MOTION_DDOT":0},{"OBJECT_NAME":"HULIANWANG DIGUI-142","OBJECT_ID":"2026-007F","EPOCH":"2026-07-21T01:04:56.983008","CLASSIFICATION_TYPE":"U","MEAN_MOTION":13.29326871,"ECCENTRICITY":0.00008518,"INCLINATION":50.0141,"RA_OF_ASC_NODE":324.3499,"ARG_OF_PERICENTER":137.1671,"MEAN_ANOMALY":222.9267,"EPHEMERIS_TYPE":0,"NORAD_CAT_ID":67440,"ELEMENT_SET_NO":999,"REV_AT_EPOCH":2529,"BSTAR":0.000046737061,"MEAN_MOTION_DOT":-0.00000102,"MEAN_MOTION_DDOT":0},{"OBJECT_NAME":"HULIANWANG DIGUI-143","OBJECT_ID":"2026-007G","EPOCH":"2026-07-20T06:50:24.500256","CLASSIFICATION_TYPE":"U","MEAN_MOTION":13.29325152,"ECCENTRICITY":0.00007192,"INCLINATION":50.012,"RA_OF_ASC_NODE":326.9727,"ARG_OF_PERICENTER":137.5951,"MEAN_ANOMALY":222.4977,"EPHEMERIS_TYPE":0,"NORAD_CAT_ID":67441,"ELEMENT_SET_NO":999,"REV_AT_EPOCH":2519,"BSTAR":0.000038957354,"MEAN_MOTION_DOT":-0.00000106,"MEAN_MOTION_DDOT":0},{"OBJECT_NAME":"HULIANWANG DIGUI-144","OBJECT_ID":"2026-007H","EPOCH":"2026-07-21T00:40:40.019808","CLASSIFICATION_TYPE":"U","MEAN_MOTION":13.29329386,"ECCENTRICITY":0.00008653,"INCLINATION":50.011,"RA_OF_ASC_NODE":324.2168,"ARG_OF_PERICENTER":140.3537,"MEAN_ANOMALY":219.7398,"EPHEMERIS_TYPE":0,"NORAD_CAT_ID":67442,"ELEMENT_SET_NO":999,"REV_AT_EPOCH":2529,"BSTAR":0.000035650146,"MEAN_MOTION_DOT":-0.00000108,"MEAN_MOTION_DDOT":0},{"OBJECT_NAME":"HULIANWANG DIGUI-145","OBJECT_ID":"2026-007J","EPOCH":"2026-07-20T15:27:38.350368","CLASSIFICATION_TYPE":"U","MEAN_MOTION":13.29325907,"ECCENTRICITY":0.0000811,"INCLINATION":50.0113,"RA_OF_ASC_NODE":325.5281,"ARG_OF_PERICENTER":136.0186,"MEAN_ANOMALY":224.0751,"EPHEMERIS_TYPE":0,"NORAD_CAT_ID":67443,"ELEMENT_SET_NO":999,"REV_AT_EPOCH":2524,"BSTAR":0.000036889926,"MEAN_MOTION_DOT":-0.00000107,"MEAN_MOTION_DDOT":0},{"OBJECT_NAME":"HULIANWANG DIGUI-146","OBJECT_ID":"2026-013A","EPOCH":"2026-07-21T01:33:26.642016","CLASSIFICATION_TYPE":"U","MEAN_MOTION":13.29325486,"ECCENTRICITY":0.00013605,"INCLINATION":50.006,"RA_OF_ASC_NODE":234.4057,"ARG_OF_PERICENTER":241.3803,"MEAN_ANOMALY":118.6932,"EPHEMERIS_TYPE":0,"NORAD_CAT_ID":67522,"ELEMENT_SET_NO":999,"REV_AT_EPOCH":2455,"BSTAR":0.000065948321,"MEAN_MOTION_DOT":-9.3e-7,"MEAN_MOTION_DDOT":0},{"OBJECT_NAME":"HULIANWANG DIGUI-147","OBJECT_ID":"2026-013B","EPOCH":"2026-07-20T19:56:24.690912","CLASSIFICATION_TYPE":"U","MEAN_MOTION":13.29329048,"ECCENTRICITY":0.00012574,"INCLINATION":50.003,"RA_OF_ASC_NODE":235.1216,"ARG_OF_PERICENTER":241.2968,"MEAN_ANOMALY":118.7778,"EPHEMERIS_TYPE":0,"NORAD_CAT_ID":67523,"ELEMENT_SET_NO":999,"REV_AT_EPOCH":2452,"BSTAR":0.000054232871,"MEAN_MOTION_DOT":-9.9e-7,"MEAN_MOTION_DDOT":0},{"OBJECT_NAME":"HULIANWANG DIGUI-148","OBJECT_ID":"2026-013C","EPOCH":"2026-07-21T02:57:23.148576","CLASSIFICATION_TYPE":"U","MEAN_MOTION":13.29327034,"ECCENTRICITY":0.00012969,"INCLINATION":50.0069,"RA_OF_ASC_NODE":234.0637,"ARG_OF_PERICENTER":240.3375,"MEAN_ANOMALY":119.7368,"EPHEMERIS_TYPE":0,"NORAD_CAT_ID":67524,"ELEMENT_SET_NO":999,"REV_AT_EPOCH":2456,"BSTAR":0.000058477457,"MEAN_MOTION_DOT":-9.7e-7,"MEAN_MOTION_DDOT":0},{"OBJECT_NAME":"HULIANWANG DIGUI-149","OBJECT_ID":"2026-013D","EPOCH":"2026-07-20T10:31:13.277568","CLASSIFICATION_TYPE":"U","MEAN_MOTION":13.2932886,"ECCENTRICITY":0.0001484,"INCLINATION":50.0077,"RA_OF_ASC_NODE":236.4381,"ARG_OF_PERICENTER":238.6982,"MEAN_ANOMALY":121.3744,"EPHEMERIS_TYPE":0,"NORAD_CAT_ID":67525,"ELEMENT_SET_NO":999,"REV_AT_EPOCH":2447,"BSTAR":0.000010755,"MEAN_MOTION_DOT":-0.00000119,"MEAN_MOTION_DDOT":0},{"OBJECT_NAME":"HULIANWANG DIGUI-150","OBJECT_ID":"2026-013E","EPOCH":"2026-07-20T19:08:30.535296","CLASSIFICATION_TYPE":"U","MEAN_MOTION":13.29324411,"ECCENTRICITY":0.00012383,"INCLINATION":50.0033,"RA_OF_ASC_NODE":234.9433,"ARG_OF_PERICENTER":239.3818,"MEAN_ANOMALY":120.6932,"EPHEMERIS_TYPE":0,"NORAD_CAT_ID":67526,"ELEMENT_SET_NO":999,"REV_AT_EPOCH":2454,"BSTAR":-0.00012020155,"MEAN_MOTION_DOT":-0.0000018,"MEAN_MOTION_DDOT":0},{"OBJECT_NAME":"HULIANWANG DIGUI-151","OBJECT_ID":"2026-013F","EPOCH":"2026-07-20T08:30:55.848384","CLASSIFICATION_TYPE":"U","MEAN_MOTION":13.29326379,"ECCENTRICITY":0.0001298,"INCLINATION":50.0088,"RA_OF_ASC_NODE":236.6724,"ARG_OF_PERICENTER":238.4379,"MEAN_ANOMALY":121.6367,"EPHEMERIS_TYPE":0,"NORAD_CAT_ID":67527,"ELEMENT_SET_NO":999,"REV_AT_EPOCH":2446,"BSTAR":-0.000077359,"MEAN_MOTION_DOT":-0.0000016,"MEAN_MOTION_DDOT":0},{"OBJECT_NAME":"HULIANWANG DIGUI-152","OBJECT_ID":"2026-013G","EPOCH":"2026-07-21T02:09:20.438496","CLASSIFICATION_TYPE":"U","MEAN_MOTION":13.29332808,"ECCENTRICITY":0.00013159,"INCLINATION":50.0018,"RA_OF_ASC_NODE":233.8108,"ARG_OF_PERICENTER":242.4476,"MEAN_ANOMALY":117.6262,"EPHEMERIS_TYPE":0,"NORAD_CAT_ID":67528,"ELEMENT_SET_NO":999,"REV_AT_EPOCH":2456,"BSTAR":0.000049520638,"MEAN_MOTION_DOT":-0.00000101,"MEAN_MOTION_DDOT":0},{"OBJECT_NAME":"HULIANWANG DIGUI-153","OBJECT_ID":"2026-013H","EPOCH":"2026-07-20T18:44:27.763296","CLASSIFICATION_TYPE":"U","MEAN_MOTION":13.29324076,"ECCENTRICITY":0.00013216,"INCLINATION":50.0021,"RA_OF_ASC_NODE":234.8496,"ARG_OF_PERICENTER":242.9913,"MEAN_ANOMALY":117.0825,"EPHEMERIS_TYPE":0,"NORAD_CAT_ID":67529,"ELEMENT_SET_NO":999,"REV_AT_EPOCH":2451,"BSTAR":0.00004122716,"MEAN_MOTION_DOT":-0.00000105,"MEAN_MOTION_DDOT":0},{"OBJECT_NAME":"HULIANWANG DIGUI-154","OBJECT_ID":"2026-013J","EPOCH":"2026-07-20T18:32:14.319744","CLASSIFICATION_TYPE":"U","MEAN_MOTION":13.29332482,"ECCENTRICITY":0.00012868,"INCLINATION":50.0044,"RA_OF_ASC_NODE":234.8456,"ARG_OF_PERICENTER":240.9574,"MEAN_ANOMALY":119.1169,"EPHEMERIS_TYPE":0,"NORAD_CAT_ID":67530,"ELEMENT_SET_NO":999,"REV_AT_EPOCH":2451,"BSTAR":0.000045676339,"MEAN_MOTION_DOT":-0.00000103,"MEAN_MOTION_DDOT":0},{"OBJECT_NAME":"HULIANWANG DIGUI-155","OBJECT_ID":"2026-047A","EPOCH":"2026-07-20T12:48:21.470976","CLASSIFICATION_TYPE":"U","MEAN_MOTION":13.29325951,"ECCENTRICITY":0.00010068,"INCLINATION":50.0042,"RA_OF_ASC_NODE":296.7866,"ARG_OF_PERICENTER":219.3258,"MEAN_ANOMALY":140.7541,"EPHEMERIS_TYPE":0,"NORAD_CAT_ID":68129,"ELEMENT_SET_NO":999,"REV_AT_EPOCH":1750,"BSTAR":0.000050971304,"MEAN_MOTION_DOT":-0.000001,"MEAN_MOTION_DDOT":0}]}
